TDRS 3                  
1 19548U 88091B   26181.79070582 -.00000291  00000+0  00000+0 0  9990
2 19548  12.5913 340.9097 0037227 356.7189 177.0046  1.00269185125524
FLTSATCOM 8 (USA 46)    
1 20253U 89077A   26181.39749484 -.00000361  00000+0  00000+0 0  9998
2 20253  12.4177 351.0837 0003776  61.7194 134.5245  1.00270675260699
SKYNET 4C               
1 20776U 90079A   26162.20198486  .00000132  00000+0  00000+0 0  9996
2 20776  13.3424 349.8525 0002400  96.2313 279.5534  1.00274127130831
TDRS 5                  
1 21639U 91054B   26181.69587235  .00000089  00000+0  00000+0 0  9998
2 21639  14.0692 353.6765 0006416 260.1130 107.8620  1.00268942127859
TDRS 6                  
1 22314U 93003B   26181.41254731 -.00000291  00000+0  00000+0 0  9993
2 22314  14.1829 356.9600 0008689 180.1597 203.8924  1.00266525122549
UFO 2 (USA 95)          
1 22787U 93056A   26181.66344949  .00000130  00000+0  00000+0 0  9994
2 22787  11.8993   3.4800 0004304   8.7455 173.9893  1.00275090118682
USA 99 (MILSTAR-1 1)    
1 22988U 94009A   26181.50146067 -.00000116  00000+0  00000+0 0  9995
2 22988  17.6455  27.5666 0000878 181.8507 180.4144  0.98722253 33088
UFO 4 (USA 108)         
1 23467U 95003A   26181.76319059 -.00000016  00000+0  00000+0 0  9993
2 23467   9.6876  13.1389 0002937  82.7711 269.8831  1.00274208115088
TDRS 7                  
1 23613U 95035B   26181.46159032 -.00000234  00000+0  00000+0 0  9993
2 23613  13.3716 348.0981 0011716  82.7068 102.9743  1.00277783113385
USA 115 (MILSTAR-1 2)   
1 23712U 95060A   26180.49930475 -.00000209  00000+0  00000+0 0  9993
2 23712  14.0768   3.6553 0002402 138.2694 225.2498  1.00363709 33014
INMARSAT 3-F1           
1 23839U 96020A   26181.60080605 -.00000026  00000+0  00000+0 0  9992
2 23839  10.6281  46.5101 0003926  70.8624 268.2184  0.99978112110389
INMARSAT 3-F2           
1 24307U 96053A   26181.54215191 -.00000331  00000+0  00000+0 0  9991
2 24307   9.8862  53.7995 0006414  41.7989 154.5325  0.99998746109053
INMARSAT 3-F3           
1 24674U 96070A   26181.84072557  .00000117  00000+0  00000+0 0  9998
2 24674  10.3469  49.5216 0003290  54.7239 145.7482  0.99988999108043
USA 134                 
1 25019U 97065A   26181.60235604 -.00000059  00000+0  00000+0 0  9991
2 25019  12.7991  21.6195 0002735 348.2789  13.1911  1.00271126 33091
INMARSAT 3-F5           
1 25153U 98006B   26181.07675966 -.00000287  00000+0  00000+0 0  9999
2 25153   9.7204  53.1307 0004309  43.0205 155.6670  1.00271672104022
ABS-6                   
1 25924U 99053A   26181.61797774 -.00000109  00000+0  00000+0 0  9993
2 25924   0.0485 274.9445 0003076 161.7085 223.4945  1.00271879 97976
UFO 10 (USA 146)        
1 25967U 99063A   26180.37000920 -.00000185  00000+0  00000+0 0  9997
2 25967   9.8449  27.1462 0001552  73.9701 286.4977  1.00268568 97462
ASIASTAR                
1 26107U 00016A   26181.60730499 -.00000329  00000+0  00000+0 0  9992
2 26107   9.1591  58.0096 0004572  40.1566 144.1522  1.00270804 96052
USA 149 (DSP 20)        
1 26356U 00024A   26181.69639236  .00000100  00000+0  00000+0 0  9999
2 26356  13.1800  11.7534 0001386 321.0483  31.5583  1.00281567 33042
TDRS 8                  
1 26388U 00034A   26181.60323163 -.00000193  00000+0  00000+0 0  9998
2 26388  12.7043  31.2070 0004600  25.9320 163.4675  1.00275124 95312
NSS-11                  
1 26554U 00059A   26181.76397059  .00000034  00000+0  00000+0 0  9995
2 26554   2.1600  81.2417 0003209  14.4280 274.1838  1.00272153 41424
USA 153                 
1 26575U 00065A   26181.47055027 -.00000323  00000+0  00000+0 0  9991
2 26575  11.6465  35.3089 0003036  54.5579 132.3965  1.00267599 33065
AMC-6                   
1 26580U 00067A   26181.77359065  .00000098  00000+0  00000+0 0  9999
2 26580   0.1853  83.4353 0004047  27.6442 311.2218  1.00274111 94026
USA 157 (MILSTAR-2 2)   
1 26715U 01009A   26181.69933904  .00000114  00000+0  00000+0 0  9996
2 26715  11.5567  19.6772 0039800 178.1583 182.6455  1.00269053 33084
INTELSAT 902 (IS-902)   
1 26900U 01039A   26181.50527403 -.00000277  00000+0  00000+0 0  9999
2 26900   6.1497  71.6208 0004210  28.0626 310.6671  1.00270084 90826
USA 164 (MILSTAR-2 3)   
1 27168U 02001A   26180.82961494  .00000101  00000+0  00000+0 0  9997
2 27168  11.1939  21.8279 0099417   8.8560 204.7984  1.00272159 33081
INTELSAT 904 (IS-904)   
1 27380U 02007A   26181.50882737 -.00000220  00000+0  00000+0 0  9990
2 27380   6.9515  69.0258 0006411  14.1461 347.1033  1.00272128 51906
DIRECTV 5 (TEMPO 1)     
1 27426U 02023A   26181.70731242 -.00000050  00000+0  00000+0 0  9996
2 27426   4.9105  75.1460 0003560  31.4863 316.6665  1.00271758 88251
INTELSAT 905 (IS-905)   
1 27438U 02027A   26181.77324397  .00000099  00000+0  00000+0 0  9991
2 27438   6.7857  69.6375 0004049  31.2679 319.0932  1.00271993 51498
GALAXY 3C (G-3C)        
1 27445U 02030A   26181.59529704 -.00000145  00000+0  00000+0 0  9995
2 27445   3.7656  77.8074 0001971  27.2183 293.1133  1.00272227 46628
INTELSAT 906 (IS-906)   
1 27513U 02041A   26181.81302442  .00000019  00000+0  00000+0 0  9995
2 27513   5.8362  72.7538 0004120  11.2519 191.7076  1.00272975 87168
NIMIQ 2                 
1 27632U 02062A   26181.63617785 -.00000065  00000+0  00000+0 0  9991
2 27632   9.4754  56.7543 0005746  38.5602 303.2282  1.00272170 44319
USA 167                 
1 27691U 03008A   26181.60686983  .00000007  00000+0  00000+0 0  9995
2 27691  10.9863  43.2869 0003710 320.7424  11.4284  1.00272500  6901
USA 169 (MILSTAR-2 4)   
1 27711U 03012A   26181.40461566 -.00000247  00000+0  00000+0 0  9996
2 27711  12.3684  29.7319 0100455   9.9194 176.6393  1.00271944 33089
ASIASAT 4               
1 27718U 03014A   26181.55124969 -.00000216  00000+0  00000+0 0  9990
2 27718   4.7374  75.5806 0002835  28.2964 160.7134  1.00269862 45434
HELLAS-SAT 2            
1 27811U 03020A   26181.44186808 -.00000079  00000+0  00000+0 0  9996
2 27811   7.3859  67.7269 0003195  52.5204 307.3077  1.00272323 42975
THURAYA-2               
1 27825U 03026A   26181.73776998  .00000130  00000+0  00000+0 0  9991
2 27825   8.8605  31.9158 0002583  17.9211 178.6022  1.00275104 84489
OPTUS C1                
1 27831U 03028B   26181.54769503 -.00000146  00000+0  00000+0 0  9991
2 27831   6.9213  69.2495 0005770  25.9498 176.3506  1.00271885 53193
USA 170                 
1 27875U 03040A   26179.94637637  .00000128  00000+0  00000+0 0  9995
2 27875  10.5240  47.8365 0002382  64.6735 169.3974  1.00272204 33117
GALAXY 13 (HORIZONS-1)  
1 27954U 03044A   26181.69933904  .00000142  00000+0  00000+0 0  9994
2 27954   1.4534  83.6929 0001688  10.3255 286.4785  1.00271423 46709
YAMAL 202               
1 28089U 03053A   26181.63548345 -.00000075  00000+0  00000+0 0  9995
2 28089   6.3767  70.7754 0003240  20.5875 219.6481  1.00271575 82834
UFO 11 (USA 174)        
1 28117U 03057A   26181.67269604 -.00000099  00000+0  00000+0 0  9999
2 28117   8.9469  33.7602 0002451  77.8527 124.8992  1.00272108 82585
USA 176 (DSP 22)        
1 28158U 04004A   26181.43415471 -.00000292  00000+0  00000+0 0  9991
2 28158  12.0792  25.9702 0000954 322.1130  37.4477  1.00272503 33066
ABS-4 (MOBISAT-1)       
1 28184U 04007A   26181.17085527  .00000045  00000+0  00000+0 0  9994
2 28184   6.0735  71.8502 0004495  26.4536 302.4105  1.00269634 52460
INTELSAT 10-02          
1 28358U 04022A   26181.37244097 -.00000001  00000+0  00000+0 0  9998
2 28358   0.0351 275.6747 0000206 207.3639 288.4805  1.00270426 80682
ANIK F2                 
1 28378U 04027A   26181.60173163 -.00000042  00000+0  00000+0 0  9991
2 28378   3.3203  79.2758 0004258  18.2692 286.6239  1.00272501 41397
AMC-15                  
1 28446U 04041A   26181.59958123 -.00000078  00000+0  00000+0 0  9997
2 28446   0.0140   8.4145 0002519  89.4870 291.5620  1.00272002 79438
NSS-10                  
1 28526U 05003A   26181.50778737 -.00000246  00000+0  00000+0 0  9994
2 28526   6.4811  70.2937 0003113  24.5014 329.1295  1.00271305 53285
INMARSAT 4-F1           
1 28628U 05009A   26181.62997161  .00000040  00000+0  00000+0 0  9991
2 28628   5.1844  42.7724 0003015  54.7588 226.0698  1.00272803 77800
DIRECTV 8               
1 28659U 05019A   26181.60496458  .00000012  00000+0  00000+0 0  9996
2 28659   0.0176 337.8440 0003356 127.6381 271.9265  1.00272164 77201
GALAXY 28 (G-28)        
1 28702U 05022A   26181.79503918 -.00000192  00000+0  00000+0 0  9999
2 28702   3.3321  78.7720 0002607  13.3341  85.8695  1.00271766 52114
THAICOM 4               
1 28786U 05028A   26181.82403115 -.00000352  00000+0  00000+0 0  9997
2 28786   0.2791  85.7120 0001976   0.8376 248.4977  1.00271284 52386
ANIK F1R                
1 28868U 05036A   26181.70783242 -.00000068  00000+0  00000+0 0  9990
2 28868   4.3455  76.4170 0004401  11.4863 338.3865  1.00272143 46581
SYRACUSE 3A             
1 28885U 05041B   26181.80957293  .00000136  00000+0  00000+0 0  9990
2 28885   4.6761  75.6705 0002764  20.1787 161.1238  1.00273948 75885
INMARSAT 4-F2           
1 28899U 05044A   26181.47267169 -.00000253  00000+0  00000+0 0  9998
2 28899   5.1102  43.6668 0003301  44.9568 143.5693  1.00270981 75655
METEOSAT-9 (MSG-2)      
1 28912U 05049B   26181.73820330  .00000127  00000+0  00000+0 0  9992
2 28912   9.3903  54.0333 0001827   1.4312 174.9175  1.00279300  7132
EUTELSAT 174A           
1 28924U 05052A   26181.63142257  .00000017  00000+0  00000+0 0  9991
2 28924   4.2517  76.3671 0006542  21.0443 222.6357  1.00275366 52461
ECHOSTAR 10             
1 28935U 06003A   26181.70722574 -.00000045  00000+0  00000+0 0  9996
2 28935   0.0360 305.1442 0001902 114.9613   3.0802  1.00272244 74594
SPAINSAT                
1 28945U 06007A   26181.31068481 -.00000207  00000+0  00000+0 0  9998
2 28945   0.5957  86.3392 0005099  11.8989 261.8144  1.00270569 74351
